CTC2_L_00384016-03
1 10062U 22321ZI  26075.70045139  .00000000  00000+0  00000-0 0  9997
2 10062  55.0000 180.0000 0000000   0.0000   0.0000 12.90384021    11
CTC2_L_00384016-04
1 10063U 23285MY  26075.70045139  .00000000  00000+0  00000-0 0  9998
2 10063  55.0000 180.0000 0000000   0.0000  90.0000 12.90384021    11
CTC2_L_00384017-01
1 10064U 23043AG  26075.70045139  .00000000  00000+0  00000-0 0  9991
2 10064  55.0000 192.0000 0000000   0.0000 192.0000 12.90384021    18
CTC2_L_00384017-02
1 10065U 23923HI  26075.70045139  .00000000  00000+0  00000-0 0  9999
2 10065  55.0000 192.0000 0000000   0.0000 282.0000 12.90384021    19
CTC2_L_00384017-03
1 10066U 23261DQ  26075.70045139  .00000000  00000+0  00000-0 0  9995
2 10066  55.0000 192.0000 0000000   0.0000  12.0000 12.90384021    11
CTC2_L_00384017-04
1 10067U 24713SX  26075.70045139  .00000000  00000+0  00000-0 0  9999
2 10067  55.0000 192.0000 0000000   0.0000 102.0000 12.90384021    12
CTC2_L_00384018-01
1 10068U 23443RL  26075.70045139  .00000000  00000+0  00000-0 0  9999
2 10068  55.0000 204.0000 0000000   0.0000 204.0000 12.90384021    10
CTC2_L_00384018-02
1 10069U 22843WG  26075.70045139  .00000000  00000+0  00000-0 0  9993
2 10069  55.0000 204.0000 0000000   0.0000 294.0000 12.90384021    10
CTC2_L_00384018-03
1 10070U 22623FU  26075.70045139  .00000000  00000+0  00000-0 0  9991
2 10070  55.0000 204.0000 0000000   0.0000  24.0000 12.90384021    13
CTC2_L_00384018-04
1 10071U 23328KA  26075.70045139  .00000000  00000+0  00000-0 0  9995
2 10071  55.0000 204.0000 0000000   0.0000 114.0000 12.90384021    14
CTC2_L_00384019-01
1 10072U 25421YF  26075.70045139  .00000000  00000+0  00000-0 0  9992
2 10072  55.0000 216.0000 0000000   0.0000 216.0000 12.90384021    11
CTC2_L_00384019-02
1 10073U 24577GJ  26075.70045139  .00000000  00000+0  00000-0 0  9994
2 10073  55.0000 216.0000 0000000   0.0000 306.0000 12.90384021    12
CTC2_L_00384019-03
1 10074U 25424KC  26075.70045139  .00000000  00000+0  00000-0 0  9997
2 10074  55.0000 216.0000 0000000   0.0000  36.0000 12.90384021    13
CTC2_L_00384019-04
1 10075U 24706JJ  26075.70045139  .00000000  00000+0  00000-0 0  9990
2 10075  55.0000 216.0000 0000000   0.0000 126.0000 12.90384021    14
CTC2_L_00384020-01
1 10076U 26905A   26075.70045139  .00000000  00000+0  00000-0 0  9994
2 10076  55.0000 228.0000 0000000   0.0000 228.0000 12.90384021    11
CTC2_L_00384020-02
1 10077U 24316AC  26075.70045139  .00000000  00000+0  00000-0 0  9999
2 10077  55.0000 228.0000 0000000   0.0000 318.0000 12.90384021    12
CTC2_L_00384020-03
1 10078U 26238B   26075.70045139  .00000000  00000+0  00000-0 0  9995
2 10078  55.0000 228.0000 0000000   0.0000  48.0000 12.90384021    13
CTC2_L_00384020-04
1 10079U 22428IH  26075.70045139  .00000000  00000+0  00000-0 0  9993
2 10079  55.0000 228.0000 0000000   0.0000 138.0000 12.90384021    14
CTC2_L_00384021-01
1 10080U 22954LS  26075.70045139  .00000000  00000+0  00000-0 0  9999
2 10080  55.0000 240.0000 0000000   0.0000 240.0000 12.90384021    14
CTC2_L_00384021-02
1 10081U 26952IU  26075.70045139  .00000000  00000+0  00000-0 0  9992
2 10081  55.0000 240.0000 0000000   0.0000 330.0000 12.90384021    15
CTC2_L_00384021-03
1 10082U 24007UP  26075.70045139  .00000000  00000+0  00000-0 0  9992
2 10082  55.0000 240.0000 0000000   0.0000  60.0000 12.90384021    16
CTC2_L_00384021-04
1 10083U 22263EB  26075.70045139  .00000000  00000+0  00000-0 0  9995
2 10083  55.0000 240.0000 0000000   0.0000 150.0000 12.90384021    17
CTC2_L_00384022-01
1 10084U 26344DW  26075.70045139  .00000000  00000+0  00000-0 0  9990
2 10084  55.0000 252.0000 0000000   0.0000 252.0000 12.90384021    14
CTC2_L_00384022-02
1 10085U 22915ZD  26075.70045139  .00000000  00000+0  00000-0 0  9991
2 10085  55.0000 252.0000 0000000   0.0000 342.0000 12.90384021    15
CTC2_L_00384022-03
1 10086U 24132CJ  26075.70045139  .00000000  00000+0  00000-0 0  9995
2 10086  55.0000 252.0000 0000000   0.0000  72.0000 12.90384021    16
CTC2_L_00384022-04
1 10087U 26301IK  26075.70045139  .00000000  00000+0  00000-0 0  9996
2 10087  55.0000 252.0000 0000000   0.0000 162.0000 12.90384021    17
CTC2_L_00384023-01
1 10088U 25980GA  26075.70045139  .00000000  00000+0  00000-0 0  9999
2 10088  55.0000 264.0000 0000000   0.0000 264.0000 12.90384021    14
CTC2_L_00384023-02
1 10089U 24895WN  26075.70045139  .00000000  00000+0  00000-0 0  9994
2 10089  55.0000 264.0000 0000000   0.0000 354.0000 12.90384021    15
CTC2_L_00384023-03
1 10090U 24087R   26075.70045139  .00000000  00000+0  00000-0 0  9999
2 10090  55.0000 264.0000 0000000   0.0000  84.0000 12.90384021    17
CTC2_L_00384023-04
1 10091U 24834RQ  26075.70045139  .00000000  00000+0  00000-0 0  9990
2 10091  55.0000 264.0000 0000000   0.0000 174.0000 12.90384021    18
CTC2_L_00384024-01
1 10092U 24052QK  26075.70045139  .00000000  00000+0  00000-0 0  9993
2 10092  55.0000 276.0000 0000000   0.0000 276.0000 12.90384021    15
CTC2_L_00384024-02
1 10093U 26116OU  26075.70045139  .00000000  00000+0  00000-0 0  9997
2 10093  55.0000 276.0000 0000000   0.0000   6.0000 12.90384021    17
CTC2_L_00384024-03
1 10094U 25051TE  26075.70045139  .00000000  00000+0  00000-0 0  9995
2 10094  55.0000 276.0000 0000000   0.0000  96.0000 12.90384021    17
CTC2_L_00384024-04
1 10095U 23863EQ  26075.70045139  .00000000  00000+0  00000-0 0  9995
2 10095  55.0000 276.0000 0000000   0.0000 186.0000 12.90384021    18
CTC2_L_00384025-01
1 10096U 22953HA  26075.70045139  .00000000  00000+0  00000-0 0  9995
2 10096  55.0000 288.0000 0000000   0.0000 288.0000 12.90384021    15
CTC2_L_00384025-02
1 10097U 23301QZ  26075.70045139  .00000000  00000+0  00000-0 0  9994
2 10097  55.0000 288.0000 0000000   0.0000  18.0000 12.90384021    17
CTC2_L_00384025-03
1 10098U 23243FP  26075.70045139  .00000000  00000+0  00000-0 0  9990
2 10098  55.0000 288.0000 0000000   0.0000 108.0000 12.90384021    18
CTC2_L_00384025-04
1 10099U 24088AZ  26075.70045139  .00000000  00000+0  00000-0 0  9999
2 10099  55.0000 288.0000 0000000   0.0000 198.0000 12.90384021    18
CTC2_L_00384026-01
1 10100U 25682VT  26075.70045139  .00000000  00000+0  00000-0 0  9993
2 10100  55.0000 300.0000 0000000   0.0000 300.0000 12.90384021    11
CTC2_L_00384026-02
1 10101U 23910KA  26075.70045139  .00000000  00000+0  00000-0 0  9996
2 10101  55.0000 300.0000 0000000   0.0000  30.0000 12.90384021    12
CTC2_L_00384026-03
1 10102U 24644UQ  26075.70045139  .00000000  00000+0  00000-0 0  9992
2 10102  55.0000 300.0000 0000000   0.0000 120.0000 12.90384021    13
CTC2_L_00384026-04
1 10103U 24667VO  26075.70045139  .00000000  00000+0  00000-0 0  9998
2 10103  55.0000 300.0000 0000000   0.0000 210.0000 12.90384021    14
CTC2_L_00384027-01
1 10104U 23723JF  26075.70045139  .00000000  00000+0  00000-0 0  9991
2 10104  55.0000 312.0000 0000000   0.0000 312.0000 12.90384021    11
CTC2_L_00384027-02
1 10105U 25168HM  26075.70045139  .00000000  00000+0  00000-0 0  9997
2 10105  55.0000 312.0000 0000000   0.0000  42.0000 12.90384021    12
CTC2_L_00384027-03
1 10106U 23042GS  26075.70045139  .00000000  00000+0  00000-0 0  9997
2 10106  55.0000 312.0000 0000000   0.0000 132.0000 12.90384021    13
CTC2_L_00384027-04
1 10107U 26738VZ  26075.70045139  .00000000  00000+0  00000-0 0  9993
2 10107  55.0000 312.0000 0000000   0.0000 222.0000 12.90384021    14
CTC2_L_00384028-01
1 10108U 23081UI  26075.70045139  .00000000  00000+0  00000-0 0  9992
2 10108  55.0000 324.0000 0000000   0.0000 324.0000 12.90384021    11
CTC2_L_00384028-02
1 10109U 22298QF  26075.70045139  .00000000  00000+0  00000-0 0  9992
2 10109  55.0000 324.0000 0000000   0.0000  54.0000 12.90384021    12
CTC2_L_00384028-03
1 10110U 23326VA  26075.70045139  .00000000  00000+0  00000-0 0  9997
2 10110  55.0000 324.0000 0000000   0.0000 144.0000 12.90384021    14
CTC2_L_00384028-04
1 10111U 24458T   26075.70045139  .00000000  00000+0  00000-0 0  9995
2 10111  55.0000 324.0000 0000000   0.0000 234.0000 12.90384021    15
CTC2_L_00384029-01
1 10112U 25720JT  26075.70045139  .00000000  00000+0  00000-0 0  9999
2 10112  55.0000 336.0000 0000000   0.0000 336.0000 12.90384021    12
CTC2_L_00384029-02
1 10113U 25865GP  26075.70045139  .00000000  00000+0  00000-0 0  9990
2 10113  55.0000 336.0000 0000000   0.0000  66.0000 12.90384021    13
CTC2_L_00384029-03
1 10114U 23886WV  26075.70045139  .00000000  00000+0  00000-0 0  9992
2 10114  55.0000 336.0000 0000000   0.0000 156.0000 12.90384021    14
CTC2_L_00384029-04
1 10115U 25881JF  26075.70045139  .00000000  00000+0  00000-0 0  9990
2 10115  55.0000 336.0000 0000000   0.0000 246.0000 12.90384021    15
CTC2_L_00384030-01
1 10116U 26538PM  26075.70045139  .00000000  00000+0  00000-0 0  9991
2 10116  55.0000 348.0000 0000000   0.0000 348.0000 12.90384021    12
CTC2_L_00384030-02
1 10117U 22191PG  26075.70045139  .00000000  00000+0  00000-0 0  9993
2 10117  55.0000 348.0000 0000000   0.0000  78.0000 12.90384021    13
CTC2_L_00384030-03
1 10118U 24282HJ  26075.70045139  .00000000  00000+0  00000-0 0  9997
2 10118  55.0000 348.0000 0000000   0.0000 168.0000 12.90384021    14
CTC2_L_00384030-04
1 10119U 26824YR  26075.70045139  .00000000  00000+0  00000-0 0  9992
2 10119  55.0000 348.0000 0000000   0.0000 258.0000 12.90384021    15
